#aV2007  7 29  0  0   .00000000      96 DD+AD WGS84 FIT  NGA
## 1438       .00000000   900.00000000 54310  .0000000000000
+   31     1  2  3  4  5  6  7  8  9 10 11 12 13 14 16 17 18
+         19 20 21 22 23 24 25 26 27 28 29 30 31 32  0  0  0
+          0  0  0  0  0  0  0  0  0  0  0  0  0  0  0  0  0
+          0  0  0  0  0  0  0  0  0  0  0  0  0  0  0  0  0
+          0  0  0  0  0  0  0  0  0  0  0  0  0  0  0  0  0
++         0  0  0  0  0  0  0  0  0  0  0  0  0  0  0  0  0
++         0  0  0  0  0  0  0  0  0  0  0  0  0  0  0  0  0
++         0  0  0  0  0  0  0  0  0  0  0  0  0  0  0  0  0
++         0  0  0  0  0  0  0  0  0  0  0  0  0  0  0  0  0
++         0  0  0  0  0  0  0  0  0  0  0  0  0  0  0  0  0
%c cc cc ccc ccc cccc cccc cccc cccc ccccc ccccc ccccc ccccc
%c cc cc ccc ccc cccc cccc cccc cccc ccccc ccccc ccccc ccccc
%f  0.0000000  0.000000000  0.00000000000  0.000000000000000
%f  0.0000000  0.000000000  0.00000000000  0.000000000000000
%i    0    0    0    0      0      0      0      0         0
%i    0    0    0    0      0      0      0      0         0
/*      NGA, ST. LOUIS,MO.                                  
/*   EPHEMERIS COMPUTED FROM  3 DAYS OF DATA                
/* CCCCCCCCCCCCCCCCCCCCCCCCCCCCCCCCCCCCCCCCCCCCCCCCCCCCCCCCC
/* CCCCCCCCCCCCCCCCCCCCCCCCCCCCCCCCCCCCCCCCCCCCCCCCCCCCCCCCC
*  2007  7 29  3 45   .00000000                                                 
P  1  10942.722351  14223.094391  19809.196997    142.735285                    
V  1 -24554.742494  -1821.428123  14959.301438       .022618                    
P  2 -13318.478655 -23112.490421  -1809.840509    125.027672                    
V  2   1759.492454  -3201.741302  31109.306081       .027963                    
P  3  18165.520812  11345.278679 -16129.734332     93.423771                    
V  3 -19946.401333   3184.104012 -20155.698712       .056159                    
P  4  -4366.557915 -24268.612526   9314.306349      4.534313                    
V  4   8253.887246   9391.222500  28490.782891      -.018731                    
P  5 -18492.155754   9491.799916  16202.859903    232.431488                    
V  5   7868.279339 -19781.264458  20411.664433       .422908                    
P  6 -22719.701984   7855.052541 -11144.674732    240.991433                    
V  6 -14423.265322  -3423.182111  26500.916065       .041120                    
P  7 -20804.606281   9767.414965 -13007.495568    179.261759                    
V  7 -17147.060036  -2808.223010  24610.689110      -.210211                    
P  8   3606.196806 -19959.364989 -17013.896719   -116.755547                    
V  8  10296.912564  18973.449917 -20646.251876      -.014361                    
P  9 -18117.787875  -8713.126823  16854.717562     80.766126                    
V  9  -9406.305940 -20503.966448 -19796.858943       .017329                    
P 10  -7509.110155 -14518.956496 -20984.408420    105.419842                    
V 10  15731.673120 -21254.148153   9436.700240       .004355                    
P 11  20165.799681   4540.398703  16717.507402     21.304567                    
V 11  10689.954164  18955.422095 -17621.270481       .005723                    
P 12 -17943.728487   2673.925892  19476.840931    -50.901008                    
V 12  12349.529671 -21234.065915  14431.904904      -.012098                    
P 13  22388.428563  -6327.193753 -12891.428951    193.814810                    
V 13  15952.931583   2901.148634  26528.478759       .031446                    
P 14  -4417.938218  14227.927779  22062.467592     32.474766                    
V 14 -27641.406475  -2418.084279  -4077.804906       .020592                    
P 16   2567.446541  18909.772611 -18327.018338    165.799584                    
V 16 -14445.074375  18579.602955  17227.917752       .025215                    
P 17   6742.701125 -14479.327932  21218.898841     59.632380                    
V 17  26831.875555   2379.089552  -7040.512149      -.014260                    
P 18 -17461.978320  19259.382243  -4273.407191   -242.684315                    
V 18    574.878606  -6556.051384 -31172.341378       .013933                    
P 19  24684.070339   7560.241710  -6430.322415     54.266988                    
V 19  -8536.896376   1697.574297 -30174.095742       .028227                    
P 20  18749.199298  -5990.660685  17716.037787    -27.385855                    
V 20 -10663.558172  20165.676564  18028.718849      -.005105                    
P 21 -10811.250654  12460.872393 -20568.726065     78.685054                    
V 21 -12374.029724 -23620.620051  -8338.657597       .000007                    
P 22 -10035.373505  23354.260172   7783.150381    192.430277                    
V 22  -8076.478384   6129.125246 -29434.500101       .013849                    
P 23  26485.156164   -712.349213  -3223.325804    186.031495                    
V 23   3826.448267   2506.125151  31483.755896       .034244                    
P 24 -16045.927233    286.724308 -20912.882144     18.708227                    
V 24 -10153.933862 -25140.932493   7657.127140       .028910                    
P 25  13831.992106  -6196.020019 -21439.820330    386.343769                    
V 25  14719.615374  23945.418118   2680.470200       .154425                    
P 26 -22947.543375  -9236.935389 -10846.293372   -334.388540                    
V 26  12911.447732    142.494224 -28097.899715      -.224092                    
P 27   9002.687238 -12982.377400 -20667.864215    125.496320                    
V 27  14796.012075  23534.279673  -8306.529047       .022907                    
P 28  12044.955315 -23080.124155   4554.005071     -3.877303                    
V 28   5511.234440  -2778.594039 -31313.221471      -.006927                    
P 29 -20219.386536 -10307.886406 -13909.641107      4.772001                    
V 29  17848.849799   -285.528786 -24997.058356       .001629                    
P 30 -18546.701134  14832.107822  11463.952686     40.853071                    
V 30   5286.844725 -14453.028968  26629.827996       .010418                    
P 31   6917.744620  24617.072266   7239.296662     14.424400                    
V 31  -6394.966367  -6784.854225  30056.300861      -.010425                    
P 32   -155.678989  20058.369672  17942.355972    534.617129                    
V 32 -14330.418552  16438.658086 -18876.583046       .196946                    
EOF
